GPS BIIR-2  (PRN 13)    
1 24876U 97035A   21358.36072181  .00000095  00000-0  00000-0 0  9992
2 24876  55.4906 162.5043 0055890  54.6206 305.8945  2.00563063179140
GPS BIIR-4  (PRN 20)    
1 26360U 00025A   21358.35792727 -.00000021  00000-0  00000-0 0  9999
2 26360  53.9181  86.1098 0053712 178.6746 266.6680  2.00558916158469
GPS BIIR-8  (PRN 16)    
1 27663U 03005A   21358.52404010 -.00000014  00000-0  00000-0 0  9993
2 27663  55.6346 280.0070 0123918  38.7801 144.4576  2.00574895138501
GPS BIIR-9  (PRN 21)    
1 27704U 03010A   21358.52952156 -.00000063  00000-0  00000-0 0  9998
2 27704  54.9524  30.3959 0246275 300.2834 105.9651  2.00572038137304
GPS BIIR-10 (PRN 22)    
1 28129U 03058A   21358.55109611 -.00000017  00000-0  00000-0 0  9994
2 28129  53.7303  88.7294 0070060 309.1474  50.2553  2.00565943131980
GPS BIIR-11 (PRN 19)    
1 28190U 04009A   21358.63570442 -.00000050  00000-0  00000-0 0  9999
2 28190  56.1011 340.9344 0086943 114.5752 310.4947  2.00564089130149
GPS BIIR-13 (PRN 02)    
1 28474U 04045A   21358.40703303 -.00000062  00000-0  00000-0 0  9996
2 28474  55.2829  30.4748 0208289 275.9349 251.8172  2.00565302125627
GPS BIIRM-1 (PRN 17)    
1 28874U 05038A   21358.33287795 -.00000050  00000-0  00000-0 0  9994
2 28874  56.1751 338.3718 0139766 272.8970 315.8392  2.00557967119021
GPS BIIRM-2 (PRN 31)    
1 29486U 06042A   21358.60280898  .00000073  00000-0  00000-0 0  9991
2 29486  54.7373 216.2300 0103648  19.1411 321.2991  2.00564467111580
GPS BIIRM-3 (PRN 12)    
1 29601U 06052A   21358.08085344 -.00000011  00000-0  00000-0 0  9995
2 29601  55.6364 278.9559 0082797  70.0717 290.8616  2.00568431110596
GPS BIIRM-4 (PRN 15)    
1 32260U 07047A   21358.38511464  .00000078  00000-0  00000-0 0  9997
2 32260  53.2721 147.7992 0137347  60.6079 300.7343  2.00557883104000
GPS BIIRM-5 (PRN 29)    
1 32384U 07062A   21358.42364098 -.00000049  00000-0  00000-0 0  9994
2 32384  56.2885 339.1071 0015848 138.6330  21.1901  2.00552438102703
GPS BIIRM-6 (PRN 07)    
1 32711U 08012A   21358.30448401  .00000073  00000-0  00000-0 0  9998
2 32711  54.4939 215.2173 0155308 228.8762 129.8480  2.00558898100949
GPS BIIRM-8 (PRN 05)    
1 35752U 09043A   21358.42695407 -.00000010  00000-0  00000-0 0  9996
2 35752  54.9401  92.5838 0057273  57.0876  48.6005  2.00567825 90556
GPS BIIF-1  (PRN 25)    
1 36585U 10022A   21358.45733187 -.00000009  00000-0  00000-0 0  9999
2 36585  54.9149 274.5818 0100622  54.6760 190.5680  2.00556291 84781
GPS BIIF-2  (PRN 01)    
1 37753U 11036A   21358.50466247 -.00000059  00000-0  00000-0 0  9994
2 37753  56.5212  35.5221 0109890  49.8102 313.2684  2.00564312 76471
GPS BIIF-3  (PRN 24)    
1 38833U 12053A   21357.98538238  .00000075  00000-0  00000-0 0  9992
2 38833  53.5466 210.5414 0120296  44.6935 316.3424  2.00559896 66621
GPS BIIF-4  (PRN 27)    
1 39166U 13023A   21358.34507667 -.00000049  00000-0  00000-0 0  9995
2 39166  55.8097 334.8127 0097662  34.7856 325.8546  2.00566891 63078
GPS BIIF-5  (PRN 30)    
1 39533U 14008A   21358.34257382  .00000071  00000-0  00000-0 0  9997
2 39533  53.6444 216.0151 0054578 204.4707 155.3451  2.00571422 56873
GPS BIIF-6  (PRN 06)    
1 39741U 14026A   21358.12203546 -.00000060  00000-0  00000-0 0  9996
2 39741  56.4862  35.0635 0027557 298.9731  60.8134  2.00568339 55721
GPS BIIF-7  (PRN 09)    
1 40105U 14045A   21358.21514684  .00000085  00000-0  00000-0 0  9997
2 40105  54.6582 153.8016 0021461 107.5065 252.7124  2.00565855 53269
GPS BIIF-8  (PRN 03)    
1 40294U 14068A   21358.08716416 -.00000005  00000-0  00000-0 0  9996
2 40294  55.6854  94.8711 0036647  54.7097 305.6462  2.00559158 52392
GPS BIIF-9  (PRN 26)    
1 40534U 15013A   21358.21965921 -.00000006  00000-0  00000-0 0  9997
2 40534  53.8182 271.9556 0065926  17.2228 343.0540  2.00563235 49019
GPS BIIF-10 (PRN 08)    
1 40730U 15033A   21358.38147120 -.00000050  00000-0  00000-0 0  9997
2 40730  55.3127 333.7233 0069936   2.0393 357.9937  2.00561128 47181
GPS BIIF-11 (PRN 10)    
1 41019U 15062A   21358.43179423 -.00000005  00000-0  00000-0 0  9997
2 41019  55.6763  94.6968 0074892 215.3187 144.1988  2.00563135 45029
GPS BIIF-12 (PRN 32)    
1 41328U 16007A   21358.52656048  .00000089  00000-0  00000-0 0  9994
2 41328  54.8804 154.4173 0054870 225.1555 134.3838  2.00553800 43036
GPS BIII-1  (PRN 04)    
1 43873U 18109A   21358.57827153  .00000092  00000-0  00000+0 0  9991
2 43873  55.0612 156.7970 0016226 189.1389 102.7795  2.00564099 22210
GPS BIII-2  (PRN 18)    
1 44506U 19056A   21358.49228892 -.00000061  00000-0  00000-0 0  9991
2 44506  55.5914  36.0159 0020967 183.7408 308.3404  2.00568680 17262
GPS BIII-3  (PRN 23)    
1 45854U 20041A   21358.25160896 -.00000008  00000-0  00000-0 0  9998
2 45854  55.3917  93.2961 0018833 171.1810  87.9803  2.00561261 11224
GPS BIII-4  (PRN 14)    
1 46826U 20078A   21358.26412406 -.00000011  00000-0  00000-0 0  9990
2 46826  54.6866 277.2040 0012624 186.2929  52.7455  2.00566911  8698
